{"type": "FeatureCollection", "features": [ {"type": "Feature", "properties": {"norad_id": 40115, "name": "WORLDVIEW-3 (WV-3)", "group": "resource", "lat": -71.71008212232577, "lon": -145.94147199685847, "alt_km": 618.0381171624222, "timestamp": "2025-12-12T11:38:31.073355+00:00", "meta": {"OBJECT_NAME": "WORLDVIEW-3 (WV-3)", "OBJECT_ID": "2014-048A", "EPOCH": "2025-12-12T04:02:18.350016", "MEAN_MOTION": 14.8550992, "ECCENTRICITY": 0.0004748, "INCLINATION": 97.8613, "RA_OF_ASC_NODE": 58.4556, "ARG_OF_PERICENTER": 186.431, "MEAN_ANOMALY": 173.6845, "EPHEMERIS_TYPE": 0, "CLASSIFICATION_TYPE": "U", "NORAD_CAT_ID": 40115, "ELEMENT_SET_NO": 999, "REV_AT_EPOCH": 61415, "BSTAR": 0.00024218, "MEAN_MOTION_DOT": 2.038e-05, "MEAN_MOTION_DDOT": 0}, "tle": {"line1": "1 40115U 14048A   25346.16826794  .00002038  00000+0  24218-3 0  9993", "line2": "2 40115  97.8613  58.4556 0004748 186.4310 173.6845 14.85509920614150"}}, "geometry": {"type": "Point", "coordinates": [-145.94147199685847, -71.71008212232577]}}, {"type": "Feature", "properties": {"norad_id": 40118, "name": "GAOFEN-2", "group": "resource", "lat": 73.15441733230101, "lon": 17.831077122876426, "alt_km": 615.6688479060176, "timestamp": "2025-12-12T11:38:31.073365+00:00", "meta": {"OBJECT_NAME": "GAOFEN-2", "OBJECT_ID": "2014-049A", "EPOCH": "2025-12-12T04:48:58.250016", "MEAN_MOTION": 14.80609065, "ECCENTRICITY": 0.0008581, "INCLINATION": 98.0382, "RA_OF_ASC_NODE": 45.3677, "ARG_OF_PERICENTER": 114.5181, "MEAN_ANOMALY": 245.6926, "EPHEMERIS_TYPE": 0, "CLASSIFICATION_TYPE": "U", "NORAD_CAT_ID": 40118, "ELEMENT_SET_NO": 999, "REV_AT_EPOCH": 61156, "BSTAR": 0.00025219, "MEAN_MOTION_DOT": 1.883e-05, "MEAN_MOTION_DDOT": 0}, "tle": {"line1": "1 40118U 14049A   25346.20067419  .00001883  00000+0  25219-3 0  9992", "line2": "2 40118  98.0382  45.3677 0008581 114.5181 245.6926 14.80609065611563"}}, "geometry": {"type": "Point", "coordinates": [17.831077122876426, 73.15441733230101]}}, {"type": "Feature", "properties": {"norad_id": 40143, "name": "YAOGAN-21", "group": "resource", "lat": -0.8969008034459237, "lon": 29.922144157627777, "alt_km": 493.0923298542648, "timestamp": "2025-12-12T11:38:31.073375+00:00", "meta": {"OBJECT_NAME": "YAOGAN-21", "OBJECT_ID": "2014-053A", "EPOCH": "2025-12-12T05:20:28.664736", "MEAN_MOTION": 15.23670973, "ECCENTRICITY": 0.0009801, "INCLINATION": 97.1757, "RA_OF_ASC_NODE": 29.558, "ARG_OF_PERICENTER": 43.6522, "MEAN_ANOMALY": 316.5489, "EPHEMERIS_TYPE": 0, "CLASSIFICATION_TYPE": "U", "NORAD_CAT_ID": 40143, "ELEMENT_SET_NO": 999, "REV_AT_EPOCH": 62646, "BSTAR": 0.00038442, "MEAN_MOTION_DOT": 9.168e-05, "MEAN_MOTION_DDOT": 0}, "tle": {"line1": "1 40143U 14053A   25346.22255399  .00009168  00000+0  38442-3 0  9999", "line2": "2 40143  97.1757  29.5580 0009801  43.6522 316.5489 15.23670973626462"}}, "geometry": {"type": "Point", "coordinates": [29.922144157627777, -0.8969008034459237]}}, {"type": "Feature", "properties": {"norad_id": 40275, "name": "YAOGAN-22", "group": "resource", "lat": 24.275818516693896, "lon": 124.98955994651763, "alt_km": 1204.2404901786813, "timestamp": "2025-12-12T11:38:31.073385+00:00", "meta": {"OBJECT_NAME": "YAOGAN-22", "OBJECT_ID": "2014-063A", "EPOCH": "2025-12-12T00:33:54.383040", "MEAN_MOTION": 13.15522652, "ECCENTRICITY": 0.0005951, "INCLINATION": 100.742, "RA_OF_ASC_NODE": 129.4329, "ARG_OF_PERICENTER": 250.0375, "MEAN_ANOMALY": 110.0095, "EPHEMERIS_TYPE": 0, "CLASSIFICATION_TYPE": "U", "NORAD_CAT_ID": 40275, "ELEMENT_SET_NO": 999, "REV_AT_EPOCH": 53520, "BSTAR": 3.5322e-05, "MEAN_MOTION_DOT": -3.3e-07, "MEAN_MOTION_DDOT": 0}, "tle": {"line1": "1 40275U 14063A   25346.02354610 -.00000033  00000+0  35322-4 0  9998", "line2": "2 40275 100.7420 129.4329 0005951 250.0375 110.0095 13.15522652535209"}}, "geometry": {"type": "Point", "coordinates": [124.98955994651763, 24.275818516693896]}}, {"type": "Feature", "properties": {"norad_id": 40298, "name": "ASNARO", "group": "resource", "lat": 50.247175506105826, "lon": 53.49061591621808, "alt_km": 501.63505408996843, "timestamp": "2025-12-12T11:38:31.073395+00:00", "meta": {"OBJECT_NAME": "ASNARO", "OBJECT_ID": "2014-070A", "EPOCH": "2025-12-12T05:05:49.454880", "MEAN_MOTION": 15.19483446, "ECCENTRICITY": 0.0005516, "INCLINATION": 97.3651, "RA_OF_ASC_NODE": 62.1709, "ARG_OF_PERICENTER": 123.6403, "MEAN_ANOMALY": 236.5359, "EPHEMERIS_TYPE": 0, "CLASSIFICATION_TYPE": "U", "NORAD_CAT_ID": 40298, "ELEMENT_SET_NO": 999, "REV_AT_EPOCH": 61561, "BSTAR": 0.00084873, "MEAN_MOTION_DOT": 0.00017978, "MEAN_MOTION_DDOT": 0}, "tle": {"line1": "1 40298U 14070A   25346.21237795  .00017978  00000+0  84873-3 0  9995", "line2": "2 40298  97.3651  62.1709 0005516 123.6403 236.5359 15.19483446615614"}}, "geometry": {"type": "Point", "coordinates": [53.49061591621808, 50.247175506105826]}}, {"type": "Feature", "properties": {"norad_id": 40310, "name": "YAOGAN-24", "group": "resource", "lat": 61.69036772529381, "lon": 102.2021362737858, "alt_km": 632.8818222299033, "timestamp": "2025-12-12T11:38:31.073405+00:00", "meta": {"OBJECT_NAME": "YAOGAN-24", "OBJECT_ID": "2014-072A", "EPOCH": "2025-12-12T04:51:03.922272", "MEAN_MOTION": 14.76175991, "ECCENTRICITY": 0.0014716, "INCLINATION": 98.1221, "RA_OF_ASC_NODE": 117.2919, "ARG_OF_PERICENTER": 139.6485, "MEAN_ANOMALY": 220.5819, "EPHEMERIS_TYPE": 0, "CLASSIFICATION_TYPE": "U", "NORAD_CAT_ID": 40310, "ELEMENT_SET_NO": 999, "REV_AT_EPOCH": 59613, "BSTAR": 0.00027655, "MEAN_MOTION_DOT": 1.862e-05, "MEAN_MOTION_DDOT": 0}, "tle": {"line1": "1 40310U 14072A   25346.20212873  .00001862  00000+0  27655-3 0  9991", "line2": "2 40310  98.1221 117.2919 0014716 139.6485 220.5819 14.76175991596139"}}, "geometry": {"type": "Point", "coordinates": [102.2021362737858, 61.69036772529381]}}, {"type": "Feature", "properties": {"norad_id": 40336, "name": "CBERS 4", "group": "resource", "lat": -20.64574072227672, "lon": -138.6546434527329, "alt_km": 778.504284562634, "timestamp": "2025-12-12T11:38:31.073416+00:00", "meta": {"OBJECT_NAME": "CBERS 4", "OBJECT_ID": "2014-079A", "EPOCH": "2025-12-12T04:01:06.384000", "MEAN_MOTION": 14.35517593, "ECCENTRICITY": 0.0001635, "INCLINATION": 98.3305, "RA_OF_ASC_NODE": 44.2034, "ARG_OF_PERICENTER": 113.9365, "MEAN_ANOMALY": 246.1993, "EPHEMERIS_TYPE": 0, "CLASSIFICATION_TYPE": "U", "NORAD_CAT_ID": 40336, "ELEMENT_SET_NO": 999, "REV_AT_EPOCH": 57712, "BSTAR": 0.00011495, "MEAN_MOTION_DOT": 2.89e-06, "MEAN_MOTION_DDOT": 0}, "tle": {"line1": "1 40336U 14079A   25346.16743500  .00000289  00000+0  11495-3 0  9994", "line2": "2 40336  98.3305  44.2034 0001635 113.9365 246.1993 14.35517593577125"}}, "geometry": {"type": "Point", "coordinates": [-138.6546434527329, -20.64574072227672]}}, {"type": "Feature", "properties": {"norad_id": 40362, "name": "YAOGAN-26", "group": "resource", "lat": 59.01755976715652, "lon": -24.75165164429103, "alt_km": 438.85173854020286, "timestamp": "2025-12-12T11:38:31.073426+00:00", "meta": {"OBJECT_NAME": "YAOGAN-26", "OBJECT_ID": "2014-088A", "EPOCH": "2025-12-12T05:08:34.235232", "MEAN_MOTION": 15.39276464, "ECCENTRICITY": 0.0006192, "INCLINATION": 97.0645, "RA_OF_ASC_NODE": 346.9068, "ARG_OF_PERICENTER": 31.6131, "MEAN_ANOMALY": 328.5486, "EPHEMERIS_TYPE": 0, "CLASSIFICATION_TYPE": "U", "NORAD_CAT_ID": 40362, "ELEMENT_SET_NO": 999, "REV_AT_EPOCH": 60886, "BSTAR": 0.00080443, "MEAN_MOTION_DOT": 0.00031371, "MEAN_MOTION_DDOT": 0}, "tle": {"line1": "1 40362U 14088A   25346.21428513  .00031371  00000+0  80443-3 0  9998", "line2": "2 40362  97.0645 346.9068 0006192  31.6131 328.5486 15.39276464608868"}}, "geometry": {"type": "Point", "coordinates": [-24.75165164429103, 59.01755976715652]}}, {"type": "Feature", "properties": {"norad_id": 40376, "name": "SMAP", "group": "resource", "lat": 17.76765647902424, "lon": -11.412590936339397, "alt_km": 682.5360203493992, "timestamp": "2025-12-12T11:38:31.073436+00:00", "meta": {"OBJECT_NAME": "SMAP", "OBJECT_ID": "2015-003A", "EPOCH": "2025-12-12T03:21:17.569152", "MEAN_MOTION": 14.63343868, "ECCENTRICITY": 0.0001201, "INCLINATION": 98.1292, "RA_OF_ASC_NODE": 350.8723, "ARG_OF_PERICENTER": 89.9956, "MEAN_ANOMALY": 270.1384, "EPHEMERIS_TYPE": 0, "CLASSIFICATION_TYPE": "U", "NORAD_CAT_ID": 40376, "ELEMENT_SET_NO": 999, "REV_AT_EPOCH": 58026, "BSTAR": 0.00018457, "MEAN_MOTION_DOT": 9.06e-06, "MEAN_MOTION_DDOT": 0}, "tle": {"line1": "1 40376U 15003A   25346.13978668  .00000906  00000+0  18457-3 0  9999", "line2": "2 40376  98.1292 350.8723 0001201  89.9956 270.1384 14.63343868580263"}}, "geometry": {"type": "Point", "coordinates": [-11.412590936339397, 17.76765647902424]}}, {"type": "Feature", "properties": {"norad_id": 40536, "name": "KOMPSAT-3A", "group": "resource", "lat": -4.130141688464427, "lon": -38.62448322825719, "alt_km": 440.3927721082255, "timestamp": "2025-12-12T11:38:31.073446+00:00", "meta": {"OBJECT_NAME": "KOMPSAT-3A", "OBJECT_ID": "2015-014A", "EPOCH": "2025-12-12T03:52:57.033408", "MEAN_MOTION": 15.43910205, "ECCENTRICITY": 0.0004913, "INCLINATION": 97.6788, "RA_OF_ASC_NODE": 320.4761, "ARG_OF_PERICENTER": 128.7396, "MEAN_ANOMALY": 231.4291, "EPHEMERIS_TYPE": 0, "CLASSIFICATION_TYPE": "U", "NORAD_CAT_ID": 40536, "ELEMENT_SET_NO": 999, "REV_AT_EPOCH": 59286, "BSTAR": 0.00058943, "MEAN_MOTION_DOT": 0.00026758, "MEAN_MOTION_DDOT": 0}, "tle": {"line1": "1 40536U 15014A   25346.16177122  .00026758  00000+0  58943-3 0  9995", "line2": "2 40536  97.6788 320.4761 0004913 128.7396 231.4291 15.43910205592863"}}, "geometry": {"type": "Point", "coordinates": [-38.62448322825719, -4.130141688464427]}}]}